{
  "norad_id": 62556,
  "name": "STARLINK-11515 [DTC]",
  "history": [
    {
      "epoch": "2026-03-28T20:35:52.695456Z",
      "apogee_km": 357.0962651836735,
      "perigee_km": 355.57723728434485,
      "latitude_deg": -8.666013993315053e-06,
      "longitude_deg": -110.57523815963204,
      "height_km": 356.0256542454767,
      "semi_major_axis_km": 6734.473751234009,
      "eccentricity": 0.00011278,
      "inclination_deg": 42.9995,
      "raan_deg": 24.667,
      "arg_perigee_deg": 276.2934,
      "mean_anomaly_deg": 83.7805,
      "mean_motion_rev_day": 15.7089539
    },
    {
      "epoch": "2026-03-29T02:42:07.020000Z",
      "apogee_km": 357.312411831228,
      "perigee_km": 355.37557509750695,
      "latitude_deg": 6.463714319465837e-07,
      "longitude_deg": 156.0785046610974,
      "height_km": 356.1570075377771,
      "semi_major_axis_km": 6734.480993464367,
      "eccentricity": 0.0001438,
      "inclination_deg": 43.0008,
      "raan_deg": 23.1311,
      "arg_perigee_deg": 267.6057,
      "mean_anomaly_deg": 92.4646,
      "mean_motion_rev_day": 15.70892856
    }
  ]
}